{"RJEC": {"temp": 16, "dewp": 14, "wdir": 360, "wspd": 4, "wgst": null, "reportTime": "2026-07-01T14:00:00.000Z", "rawOb": "METAR RJEC 011400Z AUTO 36004KT 9999 BKN027 BKN030 BKN032 16/14 Q1012"}, "RJGG": {"temp": 21, "dewp": 20, "wdir": 150, "wspd": 9, "wgst": null, "reportTime": "2026-07-01T13:30:00.000Z", "rawOb": "METAR RJGG 011330Z 15009KT 8000 -RA FEW015 SCT025 BKN035 21/20 Q1010 TEMPO 4000 SHRA BR"}, "RJBB": {"temp": 25, "dewp": 22, "wdir": 180, "wspd": 8, "wgst": null, "reportTime": "2026-07-01T13:30:00.000Z", "rawOb": "METAR RJBB 011330Z 18008KT 9999 -RA FEW008 SCT070 OVC120 25/22 Q1007 BECMG 19018KT"}, "RJAA": {"temp": 22, "dewp": 21, "wdir": 140, "wspd": 5, "wgst": null, "reportTime": "2026-07-01T13:30:00.000Z", "rawOb": "METAR RJAA 011330Z 14005KT 6000 -SHRA FEW005 BKN140 22/21 Q1011 TEMPO 4000 -SHRA BR FEW003 BKN005"}, "RJFF": {"temp": 22, "dewp": 22, "wdir": 330, "wspd": 7, "wgst": null, "reportTime": "2026-07-01T13:30:00.000Z", "rawOb": "METAR RJFF 011330Z 33007KT 290V360 4000 +SHRA FEW002 SCT005 BKN007 22/22 Q1008 TEMPO 3000 TSRA BR BKN005 BKN010 FEW020CB"}, "RJOM": {"temp": 26, "dewp": 23, "wdir": 190, "wspd": 10, "wgst": null, "reportTime": "2026-07-01T14:00:00.000Z", "rawOb": "METAR RJOM 011400Z AUTO 19010KT 9999 BKN045 OVC060 26/23 Q1006"}, "ROAH": {"temp": 28, "dewp": 27, "wdir": 180, "wspd": 5, "wgst": null, "reportTime": "2026-07-01T13:30:00.000Z", "rawOb": "METAR ROAH 011330Z 18005KT 9999 FEW009 28/27 Q1013"}, "RJOO": {"temp": 22, "dewp": 21, "wdir": 80, "wspd": 8, "wgst": null, "reportTime": "2026-07-01T14:00:00.000Z", "rawOb": "METAR RJOO 011400Z AUTO 08008KT 9999 -RA FEW022 BKN032 OVC090 22/21 Q1007"}, "RJOT": {"temp": 26, "dewp": 21, "wdir": 220, "wspd": 11, "wgst": null, "reportTime": "2026-07-01T14:00:00.000Z", "rawOb": "METAR RJOT 011400Z AUTO 22011KT 180V250 9999 BKN060 BKN070 OVC230 26/21 Q1006"}, "RJSS": {"temp": 21, "dewp": 20, "wdir": 140, "wspd": 4, "wgst": null, "reportTime": "2026-07-01T14:00:00.000Z", "rawOb": "METAR RJSS 011400Z AUTO 14004KT 9999 BKN005 OVC190 21/20 Q1011"}, "RJOA": {"temp": 22, "dewp": 22, "wdir": 230, "wspd": 9, "wgst": null, "reportTime": "2026-07-01T14:00:00.000Z", "rawOb": "METAR RJOA 011400Z AUTO 23009KT 190V260 7000 -RA FEW003 SCT005 BKN008 22/22 Q1007"}, "RJTT": {"temp": 24, "dewp": 23, "wdir": 180, "wspd": 9, "wgst": null, "reportTime": "2026-07-01T13:30:00.000Z", "rawOb": "METAR RJTT 011330Z 18009KT 9999 -RA FEW009 OVC140 24/23 Q1011 NOSIG"}, "RJCK": {"temp": 14, "dewp": 13, "wdir": 50, "wspd": 4, "wgst": null, "reportTime": "2026-07-01T14:00:00.000Z", "rawOb": "METAR RJCK 011400Z AUTO 05004KT 9999 FEW003 SCT009 BKN011 14/13 Q1014"}, "_updated": "2026-07-01T16:08:13Z"}