{"RJBB": {"temp": 25, "dewp": 24, "wdir": 210, "wspd": 18, "wgst": null, "reportTime": "2026-07-01T23:00:00.000Z", "rawOb": "METAR RJBB 012300Z 21018KT 9999 FEW005 SCT008 BKN/// 25/24 Q1005 TEMPO 4000 SHRA BR FEW003 BKN008 BKN015"}, "RJAA": {"temp": 20, "dewp": 20, "wdir": 80, "wspd": 9, "wgst": null, "reportTime": "2026-07-01T23:00:00.000Z", "rawOb": "METAR RJAA 012300Z 08009KT 2000 R16R/P2000N R16L/P2000N +SHRA BR FEW002 BKN005 BKN030 20/20 Q1008 NOSIG"}, "RJGG": {"temp": 22, "dewp": 21, "wdir": 360, "wspd": 10, "wgst": null, "reportTime": "2026-07-01T23:00:00.000Z", "rawOb": "METAR RJGG 012300Z 36010KT 9999 -SHRA FEW003 SCT006 BKN035 22/21 Q1006 TEMPO FEW002 BKN005"}, "RJFF": {"temp": 22, "dewp": 21, "wdir": 350, "wspd": 6, "wgst": null, "reportTime": "2026-07-01T23:00:00.000Z", "rawOb": "METAR RJFF 012300Z 35006KT 310V020 9000 -DZ FEW001 SCT007 BKN010 22/21 Q1009 TEMPO 4000 -RA BR BKN005 BKN035"}, "ROAH": {"temp": 29, "dewp": 27, "wdir": 200, "wspd": 8, "wgst": null, "reportTime": "2026-07-01T23:00:00.000Z", "rawOb": "METAR ROAH 012300Z 20008KT 9999 FEW015 29/27 Q1013"}, "RJTT": {"temp": 21, "dewp": 20, "wdir": 60, "wspd": 13, "wgst": null, "reportTime": "2026-07-01T23:00:00.000Z", "rawOb": "METAR RJTT 012300Z 06013KT 3500 SHRA BR FEW003 BKN005 BKN015 21/20 Q1007 BECMG 04014KT TEMPO 3000 SHRA BR"}, "RJCB": {"temp": 15, "dewp": 13, "wdir": 150, "wspd": 7, "wgst": null, "reportTime": "2026-07-01T23:00:00.000Z", "rawOb": "METAR RJCB 012300Z 15007KT 9999 FEW008 BKN009 BKN010 15/13 Q1013"}, "RJCK": {"temp": 14, "dewp": 12, "wdir": 70, "wspd": 5, "wgst": null, "reportTime": "2026-07-01T23:00:00.000Z", "rawOb": "METAR RJCK 012300Z 07005KT 9999 FEW003 BKN006 BKN010 14/12 Q1014"}, "RJCO": {"temp": 19, "dewp": 16, "wdir": 180, "wspd": 2, "wgst": null, "reportTime": "2026-07-01T23:00:00.000Z", "rawOb": "METAR RJCO 012300Z 18002KT 9999 FEW008 BKN015 BKN020 19/16 Q1011"}, "RJEC": {"temp": 17, "dewp": 14, "wdir": 360, "wspd": 4, "wgst": null, "reportTime": "2026-07-01T23:00:00.000Z", "rawOb": "METAR RJEC 012300Z 36004KT 300V050 9999 FEW006 SCT012 BKN018 17/14 Q1012"}, "RJOO": {"temp": 25, "dewp": 23, "wdir": 250, "wspd": 3, "wgst": null, "reportTime": "2026-07-01T23:00:00.000Z", "rawOb": "METAR RJOO 012300Z 25003KT 210V330 9999 FEW003 SCT007 BKN011 25/23 Q1005"}, "RJOT": {"temp": 23, "dewp": 23, "wdir": 280, "wspd": 4, "wgst": null, "reportTime": "2026-07-01T23:00:00.000Z", "rawOb": "METAR RJOT 012300Z 28004KT 8000 -SHRA FEW000 SCT003 BKN015 23/23 Q1006"}, "RJSS": {"temp": 21, "dewp": 20, "wdir": 100, "wspd": 5, "wgst": null, "reportTime": "2026-07-01T23:00:00.000Z", "rawOb": "METAR RJSS 012300Z 10005KT 2500 -RA BR FEW001 BKN005 BKN008 21/20 Q1009"}, "RJBE": {"temp": 24, "dewp": 24, "wdir": 260, "wspd": 7, "wgst": null, "reportTime": "2026-07-01T23:00:00.000Z", "rawOb": "METAR RJBE 012300Z 26007KT 9999 FEW005 SCT008 BKN010 24/24 Q1005"}, "RJSK": {"temp": 23, "dewp": 19, "wdir": 150, "wspd": 5, "wgst": null, "reportTime": "2026-07-01T23:00:00.000Z", "rawOb": "METAR RJSK 012300Z 15005KT 100V180 9999 FEW030 BKN/// 23/19 Q1008"}, "RJOM": {"temp": 22, "dewp": 22, "wdir": 210, "wspd": 9, "wgst": null, "reportTime": "2026-07-01T23:00:00.000Z", "rawOb": "METAR RJOM 012300Z 21009KT 9999 -SHRA FEW002 BKN003 BKN005 22/22 Q1007"}, "RJOA": {"temp": 23, "dewp": 21, "wdir": 290, "wspd": 7, "wgst": null, "reportTime": "2026-07-01T23:00:00.000Z", "rawOb": "METAR RJOA 012300Z 29007KT 220V330 9999 BCFG FEW000 SCT010 BKN150 23/21 Q1008"}, "RJOB": {"temp": 23, "dewp": 22, "wdir": 220, "wspd": 6, "wgst": null, "reportTime": "2026-07-01T23:00:00.000Z", "rawOb": "METAR RJOB 012300Z 22006KT 6000 BCFG FEW000 SCT004 BKN100 23/22 Q1006"}, "_updated": "2026-07-02T01:52:11Z"}