{"ROAH": {"temp": 27, "dewp": 27, "wdir": 200, "wspd": 9, "wgst": null, "reportTime": "2026-07-01T21:00:00.000Z", "rawOb": "METAR ROAH 012100Z 20009KT 9999 FEW015 27/27 Q1013"}, "RJTT": {"temp": 21, "dewp": 20, "wdir": 70, "wspd": 11, "wgst": null, "reportTime": "2026-07-01T21:00:00.000Z", "rawOb": "METAR RJTT 012100Z 07011KT 3500 SHRA BR FEW004 BKN007 BKN030 21/20 Q1008 TEMPO 2000 SHRA BR FEW003 BKN005"}, "RJAA": {"temp": 21, "dewp": 20, "wdir": 140, "wspd": 8, "wgst": null, "reportTime": "2026-07-01T21:00:00.000Z", "rawOb": "METAR RJAA 012100Z 14008KT 3000 SHRA BR FEW003 SCT005 BKN040 21/20 Q1009 TEMPO FEW003 BKN005"}, "RJBB": {"temp": 25, "dewp": 24, "wdir": 220, "wspd": 17, "wgst": null, "reportTime": "2026-07-01T21:00:00.000Z", "rawOb": "METAR RJBB 012100Z 22017KT 8000 -SHRA FEW005 BKN008 BKN025 FEW025CB 25/24 Q1005 TEMPO 4000 SHRA BR"}, "RJFF": {"temp": 22, "dewp": 21, "wdir": 320, "wspd": 5, "wgst": null, "reportTime": "2026-07-01T21:00:00.000Z", "rawOb": "METAR RJFF 012100Z 32005KT 9999 FEW001 BKN007 BKN035 22/21 Q1008 TEMPO BKN005 BKN015"}, "RJGG": {"temp": 23, "dewp": 23, "wdir": 130, "wspd": 4, "wgst": null, "reportTime": "2026-07-01T21:00:00.000Z", "rawOb": "METAR RJGG 012100Z 13004KT 090V160 7000 -SHRA FEW008 BKN020 BKN045 23/23 Q1005 TEMPO 3000 TSRA BR FEW002 BKN008 FEW012CB BECMG 36006KT"}, "RJSK": {"temp": 20, "dewp": 18, "wdir": 140, "wspd": 5, "wgst": null, "reportTime": "2026-07-01T22:00:00.000Z", "rawOb": "METAR RJSK 012200Z 14005KT 9999 FEW030 SCT190 BKN/// 20/18 Q1008"}, "RJEC": {"temp": 15, "dewp": 13, "wdir": 360, "wspd": 3, "wgst": null, "reportTime": "2026-07-01T21:00:00.000Z", "rawOb": "METAR RJEC 012100Z AUTO 36003KT 330V040 9999 BKN007 BKN045 15/13 Q1012"}, "RJCO": {"temp": 18, "dewp": 16, "wdir": 60, "wspd": 3, "wgst": null, "reportTime": "2026-07-01T22:00:00.000Z", "rawOb": "METAR RJCO 012200Z 06003KT 9999 FEW007 BKN015 18/16 Q1011"}, "RJCK": {"temp": 13, "dewp": 12, "wdir": "VRB", "wspd": 2, "wgst": null, "reportTime": "2026-07-01T21:00:00.000Z", "rawOb": "METAR RJCK 012100Z AUTO VRB02KT 9999 BKN004 OVC023 13/12 Q1014"}, "RJCB": {"temp": 15, "dewp": 13, "wdir": 150, "wspd": 7, "wgst": null, "reportTime": "2026-07-01T23:00:00.000Z", "rawOb": "METAR RJCB 012300Z 15007KT 9999 FEW008 BKN009 BKN010 15/13 Q1013"}, "RJBE": {"temp": 24, "dewp": 23, "wdir": 250, "wspd": 7, "wgst": null, "reportTime": "2026-07-01T22:00:00.000Z", "rawOb": "METAR RJBE 012200Z 25007KT 9999 -SHRA FEW005 SCT010 BKN012 24/23 Q1005"}, "RJOO": {"temp": 24, "dewp": 23, "wdir": 280, "wspd": 5, "wgst": null, "reportTime": "2026-07-01T21:00:00.000Z", "rawOb": "METAR RJOO 012100Z AUTO 28005KT 230V350 1000 R32L/0900VP2000D +RA BR FEW010 SCT017 BKN026 //////TCU 24/23 Q1005"}, "RJOM": {"temp": 22, "dewp": 22, "wdir": 310, "wspd": 10, "wgst": null, "reportTime": "2026-07-01T21:00:00.000Z", "rawOb": "METAR RJOM 012100Z AUTO 31010KT 1200 R14/0900V1900N +RA BR FEW003 BKN019 BKN029 //////TCU 22/22 Q1005"}, "RJOB": {"temp": 23, "dewp": 22, "wdir": 240, "wspd": 6, "wgst": null, "reportTime": "2026-07-01T22:00:00.000Z", "rawOb": "METAR RJOB 012200Z 24006KT 3000 -RA BR BCFG FEW000 SCT040 BKN100 23/22 Q1005"}, "RJOA": {"temp": 22, "dewp": 21, "wdir": 290, "wspd": 9, "wgst": null, "reportTime": "2026-07-01T21:00:00.000Z", "rawOb": "METAR RJOA 012100Z AUTO 29009KT 9999 FEW007 SCT070 BKN080 //////TCU 22/21 Q1006"}, "RJSS": {"temp": 21, "dewp": 20, "wdir": 120, "wspd": 3, "wgst": null, "reportTime": "2026-07-01T21:00:00.000Z", "rawOb": "METAR RJSS 012100Z AUTO 12003KT 2800 BR SCT002 OVC003 21/20 Q1010"}, "RJOT": {"temp": 23, "dewp": 23, "wdir": "VRB", "wspd": 2, "wgst": null, "reportTime": "2026-07-01T21:00:00.000Z", "rawOb": "METAR RJOT 012100Z AUTO VRB02KT 9999 RA FEW000 SCT110 BKN120 //////TCU 23/23 Q1006"}, "_updated": "2026-07-01T23:44:35Z"}