{"RJOA": {"temp": 24, "dewp": 20, "wdir": "VRB", "wspd": 2, "wgst": null, "reportTime": "2026-06-30T09:00:00.000Z", "rawOb": "METAR RJOA 300900Z VRB02KT 9999 FEW025 BKN/// 24/20 Q1012"}, "RJOT": {"temp": 26, "dewp": 23, "wdir": "VRB", "wspd": 2, "wgst": null, "reportTime": "2026-06-30T09:00:00.000Z", "rawOb": "METAR RJOT 300900Z VRB02KT 9999 FEW030 BKN/// 26/23 Q1011"}, "RJOB": {"temp": 26, "dewp": 20, "wdir": 240, "wspd": 4, "wgst": null, "reportTime": "2026-06-30T09:00:00.000Z", "rawOb": "METAR RJOB 300900Z 24004KT 9999 FEW030 BKN/// 26/20 Q1011"}, "RJAA": {"temp": 24, "dewp": 21, "wdir": 130, "wspd": 7, "wgst": null, "reportTime": "2026-06-30T09:00:00.000Z", "rawOb": "METAR RJAA 300900Z 13007KT 090V150 9999 FEW015 24/21 Q1011 NOSIG"}, "RJBE": {"temp": 25, "dewp": 22, "wdir": 230, "wspd": 8, "wgst": null, "reportTime": "2026-06-30T09:00:00.000Z", "rawOb": "METAR RJBE 300900Z 23008KT 9999 FEW025 BKN/// 25/22 Q1011"}, "RJBB": {"temp": 26, "dewp": 21, "wdir": 210, "wspd": 12, "wgst": null, "reportTime": "2026-06-30T09:00:00.000Z", "rawOb": "METAR RJBB 300900Z 21012KT 190V260 9999 FEW030 SCT180 BKN/// 26/21 Q1011 NOSIG"}, "RJOM": {"temp": 24, "dewp": 21, "wdir": "VRB", "wspd": 2, "wgst": null, "reportTime": "2026-06-30T09:00:00.000Z", "rawOb": "METAR RJOM 300900Z VRB02KT 9999 FEW035 BKN/// 24/21 Q1011"}, "RJGG": {"temp": 25, "dewp": 21, "wdir": 160, "wspd": 12, "wgst": null, "reportTime": "2026-06-30T09:00:00.000Z", "rawOb": "METAR RJGG 300900Z 16012KT 9999 FEW020 BKN/// 25/21 Q1011 NOSIG"}, "RJCK": {"temp": 13, "dewp": 13, "wdir": 200, "wspd": 5, "wgst": null, "reportTime": "2026-06-30T09:00:00.000Z", "rawOb": "METAR RJCK 300900Z 20005KT 0300 R17/0550V1800D FG VV001 13/13 Q1012"}, "ROAH": {"temp": 30, "dewp": 27, "wdir": 180, "wspd": 10, "wgst": null, "reportTime": "2026-06-30T09:00:00.000Z", "rawOb": "METAR ROAH 300900Z 18010KT 9999 FEW018 BKN/// 30/27 Q1012"}, "RJCB": {"temp": 19, "dewp": 16, "wdir": 180, "wspd": 6, "wgst": null, "reportTime": "2026-06-30T09:00:00.000Z", "rawOb": "METAR RJCB 300900Z 18006KT 9999 FEW030 SCT/// 19/16 Q1010"}, "RJCO": {"temp": 19, "dewp": 15, "wdir": 350, "wspd": 8, "wgst": null, "reportTime": "2026-06-30T09:00:00.000Z", "rawOb": "METAR RJCO 300900Z 35008KT 9999 FEW030 BKN230 19/15 Q1012"}, "RJEC": {"temp": 21, "dewp": 16, "wdir": 300, "wspd": 7, "wgst": null, "reportTime": "2026-06-30T09:00:00.000Z", "rawOb": "METAR RJEC 300900Z 30007KT 9999 FEW030 SCT110 BKN/// 21/16 Q1011"}, "RJFF": {"temp": 26, "dewp": 21, "wdir": 320, "wspd": 5, "wgst": null, "reportTime": "2026-06-30T09:00:00.000Z", "rawOb": "METAR RJFF 300900Z 32005KT 9999 FEW020 SCT045 BKN/// 26/21 Q1011 NOSIG"}, "RJSK": {"temp": 23, "dewp": 17, "wdir": 300, "wspd": 7, "wgst": null, "reportTime": "2026-06-30T09:00:00.000Z", "rawOb": "METAR RJSK 300900Z 30007KT 9999 FEW035 23/17 Q1012"}, "RJSS": {"temp": 21, "dewp": 20, "wdir": 140, "wspd": 6, "wgst": null, "reportTime": "2026-06-30T09:00:00.000Z", "rawOb": "METAR RJSS 300900Z 14006KT 9999 FEW001 BKN003 BKN005 21/20 Q1012"}, "RJTT": {"temp": 27, "dewp": 21, "wdir": 200, "wspd": 8, "wgst": null, "reportTime": "2026-06-30T09:00:00.000Z", "rawOb": "METAR RJTT 300900Z 20008KT 9999 FEW025 SCT060 27/21 Q1011 NOSIG"}, "RJOO": {"temp": 27, "dewp": 20, "wdir": 210, "wspd": 6, "wgst": null, "reportTime": "2026-06-30T09:00:00.000Z", "rawOb": "METAR RJOO 300900Z 21006KT 150V240 9999 FEW030 BKN/// 27/20 Q1010"}, "_updated": "2026-06-30T11:34:44Z"}