{"RJGG": {"temp": 25, "dewp": 22, "wdir": 170, "wspd": 8, "wgst": null, "reportTime": "2026-07-01T04:00:00.000Z", "rawOb": "METAR RJGG 010400Z 17008KT 7000 -SHRA FEW012 SCT025 BKN150 25/22 Q1011 NOSIG"}, "RJBB": {"temp": 24, "dewp": 22, "wdir": 280, "wspd": 8, "wgst": null, "reportTime": "2026-07-01T04:00:00.000Z", "rawOb": "METAR RJBB 010400Z 28008KT 9000 -RA FEW005 BKN040 OVC100 24/22 Q1011 BECMG 03006KT"}, "RJAA": {"temp": 26, "dewp": 21, "wdir": 50, "wspd": 4, "wgst": null, "reportTime": "2026-07-01T04:00:00.000Z", "rawOb": "METAR RJAA 010400Z 05004KT 360V150 6000 FEW010 BKN020 BKN/// 26/21 Q1011 BECMG 10006KT"}, "RJTT": {"temp": 27, "dewp": 22, "wdir": 180, "wspd": 7, "wgst": null, "reportTime": "2026-07-01T04:00:00.000Z", "rawOb": "METAR RJTT 010400Z 18007KT 9999 FEW020 BKN/// 27/22 Q1011 NOSIG"}, "RJFF": {"temp": 25, "dewp": 24, "wdir": 160, "wspd": 12, "wgst": null, "reportTime": "2026-07-01T04:00:00.000Z", "rawOb": "METAR RJFF 010400Z 16012KT 9999 -SHRA FEW002 SCT020 BKN030 25/24 Q1006 TEMPO 4000 SHRA BR"}, "ROAH": {"temp": 30, "dewp": 27, "wdir": 180, "wspd": 10, "wgst": null, "reportTime": "2026-07-01T04:00:00.000Z", "rawOb": "METAR ROAH 010400Z 18010KT 9999 FEW010 SCT/// 30/27 Q1012"}, "RJBE": {"temp": 25, "dewp": 22, "wdir": 260, "wspd": 4, "wgst": null, "reportTime": "2026-07-01T04:00:00.000Z", "rawOb": "METAR RJBE 010400Z 26004KT 9999 -RA FEW020 SCT040 BKN100 25/22 Q1011"}, "RJCB": {"temp": 25, "dewp": 16, "wdir": 160, "wspd": 10, "wgst": null, "reportTime": "2026-07-01T04:00:00.000Z", "rawOb": "METAR RJCB 010400Z 16010KT 9999 FEW030 25/16 Q1009"}, "RJEC": {"temp": 22, "dewp": 16, "wdir": 340, "wspd": 8, "wgst": null, "reportTime": "2026-07-01T04:00:00.000Z", "rawOb": "METAR RJEC 010400Z 34008KT 320V020 9999 FEW020 SCT040 BKN140 22/16 Q1012"}, "RJCK": {"temp": 20, "dewp": 15, "wdir": 170, "wspd": 11, "wgst": null, "reportTime": "2026-07-01T04:00:00.000Z", "rawOb": "METAR RJCK 010400Z 17011KT 9999 FEW040 SCT120 20/15 Q1011"}, "RJCO": {"temp": 22, "dewp": 16, "wdir": 360, "wspd": 9, "wgst": null, "reportTime": "2026-07-01T04:00:00.000Z", "rawOb": "METAR RJCO 010400Z 36009KT 9999 FEW020 BKN030 22/16 Q1011"}, "RJOA": {"temp": 21, "dewp": 20, "wdir": 120, "wspd": 6, "wgst": null, "reportTime": "2026-07-01T04:00:00.000Z", "rawOb": "METAR RJOA 010400Z 12006KT 090V160 0900 R10/0650VP2000D SHRA FG FEW000 SCT002 BKN003 FEW020TCU 21/20 Q1012"}, "RJOO": {"temp": 26, "dewp": 21, "wdir": "VRB", "wspd": 1, "wgst": null, "reportTime": "2026-07-01T04:00:00.000Z", "rawOb": "METAR RJOO 010400Z VRB01KT 8000 -RA FEW020 SCT030 OVC100 26/21 Q1011"}, "RJOT": {"temp": 23, "dewp": 23, "wdir": 10, "wspd": 4, "wgst": null, "reportTime": "2026-07-01T04:00:00.000Z", "rawOb": "METAR RJOT 010400Z 01004KT 1500 R26/1500VP2000U -SHRA BR FEW000 SCT002 BKN006 23/23 Q1011"}, "RJSK": {"temp": 26, "dewp": 17, "wdir": 290, "wspd": 7, "wgst": null, "reportTime": "2026-07-01T04:00:00.000Z", "rawOb": "METAR RJSK 010400Z 29007KT 250V340 9999 FEW035 BKN/// 26/17 Q1011"}, "RJOB": {"temp": 22, "dewp": 22, "wdir": 90, "wspd": 4, "wgst": null, "reportTime": "2026-07-01T04:00:00.000Z", "rawOb": "METAR RJOB 010400Z 09004KT 1500 R07/P2000N -SHRA BR BCFG FEW000 SCT002 BKN003 22/22 Q1011"}, "RJSS": {"temp": 24, "dewp": 20, "wdir": 160, "wspd": 11, "wgst": null, "reportTime": "2026-07-01T04:00:00.000Z", "rawOb": "METAR RJSS 010400Z 16011KT 9999 FEW005 BKN/// 24/20 Q1012"}, "RJOM": {"temp": 23, "dewp": 23, "wdir": 20, "wspd": 6, "wgst": null, "reportTime": "2026-07-01T04:00:00.000Z", "rawOb": "METAR RJOM 010400Z 02006KT 4000 -SHRA BR FEW003 SCT030 BKN090 23/23 Q1010"}, "_updated": "2026-07-01T06:41:26Z"}